[
  {
    "OBJECT_NAME": "YAOGAN-40 02A",
    "OBJECT_ID": "2025-096A",
    "EPOCH": "2026-06-11T21:31:37.831000",
    "MEAN_MOTION": 14.124469,
    "ECCENTRICITY": 0.0002709,
    "INCLINATION": 85.9954,
    "RA_OF_ASC_NODE": 190.3389,
    "ARG_OF_PERICENTER": 94.1816,
    "MEAN_ANOMALY": 265.9676,
    "EPHEMERIS_TYPE": 0,
    "CLASSIFICATION_TYPE": "U",
    "NORAD_CAT_ID": 63918,
    "ELEMENT_SET_NO": 999,
    "REV_AT_EPOCH": 5582,
    "BSTAR": 0.000052663999999999996,
    "MEAN_MOTION_DOT": 0.00000116,
    "MEAN_MOTION_DDOT": 0
  }
]
