YAOGAN-40 02A           
1 63918U 25096A   26162.89696564  .00000116  00000+0  52664-4 0  9993
2 63918  85.9954 190.3389 0002709  94.1816 265.9676 14.12446900 55821
